[{"OBJECT_NAME":"STARLINK-34791","OBJECT_ID":"2025-224K","EPOCH":"2026-03-09T23:27:49.248576","MEAN_MOTION":15.30234471,"ECCENTRICITY":0.00013171,"INCLINATION":53.1612,"RA_OF_ASC_NODE":10.3449,"ARG_OF_PERICENTER":98.5779,"MEAN_ANOMALY":261.5371,"EPHEMERIS_TYPE":0,"CLASSIFICATION_TYPE":"U","NORAD_CAT_ID":65891,"ELEMENT_SET_NO":999,"REV_AT_EPOCH":2491,"BSTAR":0.0010465324,"MEAN_MOTION_DOT":0.00030798,"MEAN_MOTION_DDOT":0},{"OBJECT_NAME":"CZ-4B DEB","OBJECT_ID":"1999-057H","EPOCH":"2026-03-09T17:25:29.363520","MEAN_MOTION":15.25756771,"ECCENTRICITY":0.00339549,"INCLINATION":98.6728,"RA_OF_ASC_NODE":149.1557,"ARG_OF_PERICENTER":175.409,"MEAN_ANOMALY":184.7463,"EPHEMERIS_TYPE":0,"CLASSIFICATION_TYPE":"U","NORAD_CAT_ID":26121,"ELEMENT_SET_NO":999,"REV_AT_EPOCH":41150,"BSTAR":0.00075758105,"MEAN_MOTION_DOT":0.00019602,"MEAN_MOTION_DDOT":0}]
